0 THOR ABLESTAR DEB
1 13513U 61015KW  13282.72053161  .00000632  00000-0  63699-3 0  8027
2 13513 065.6844 026.0412 0107911 232.0546 251.9401 13.81951303677909
0 THOR ABLESTAR DEB
1 13513U 61015KW  13283.49149292  .00001166  00000-0  10365-2 0  8049
2 13513 065.6837 024.1077 0107926 231.4329 127.7492 13.81950511678018
0 THOR ABLESTAR DEB
1 13513U 61015KW  13285.69335131  .00000687  00000-0  68588-3 0  8040
2 13513 065.6845 018.5649 0107857 230.8687 281.5989 13.81955767678313
0 THOR ABLESTAR DEB
1 13513U 61015KW  13287.12515727  .00000747  00000-0  73913-3 0  8057
2 13513 065.6844 014.9641 0107819 230.2837 204.8099 13.81958390678510
0 THOR ABLESTAR DEB
1 13513U 61015KW  13288.57988921  .00000864  00000-0  84364-3 0  8060
2 13513 065.6842 011.3059 0107810 229.6927 242.0887 13.81961452678719
0 THOR ABLESTAR DEB
1 13513U 61015KW  13290.09247692  .00000799  00000-0  78578-3 0  8071
2 13513 065.6841 007.5021 0107754 229.0910 207.2022 13.81965244678927
0 THOR ABLESTAR DEB
1 13513U 61015KW  13291.10590888  .00000786  00000-0  77339-3 0  8083
2 13513 065.6839 004.9535 0107719 228.6844 209.0339 13.81967337679069
0 THOR ABLESTAR DEB
1 13513U 61015KW  13292.40990391  .00000801  00000-0  78677-3 0  8095
2 13513 065.6839 001.6740 0107665 228.1551 216.4377 13.81969760679247
0 THOR ABLESTAR DEB
1 13513U 61015KW  13293.49923899  .00000847  00000-0  82834-3 0  8106
2 13513 065.6838 358.9346 0107598 227.7177 235.9066 13.81972280679398
0 THOR ABLESTAR DEB
1 13513U 61015KW  13295.52685828  .00000867  00000-0  84553-3 0  8112
2 13513 065.6837 353.8350 0107474 226.8773 243.4143 13.81976617679670
